{
  "type": "FeatureCollection",
  "features": [
    {
      "type": "Feature",
      "properties": {
        "norad_id": 34350,
        "name": "IRIDIUM 33 DEB",
        "group": "iridium-33-debris",
        "lat": 4.41439478187007,
        "lon": 177.4964779555467,
        "alt_km": 739.0240315008477,
        "timestamp": "2025-12-24T07:45:06.583764+00:00",
        "meta_object_name": "IRIDIUM 33 DEB",
        "meta_object_id": "1997-051ES",
        "meta_epoch": "2025-12-23T18:28:41.895840",
        "meta_mean_motion": 14.45411309,
        "meta_eccentricity": 0.00234827,
        "meta_inclination": 86.3273,
        "meta_ra_of_asc_node": 358.0205,
        "meta_arg_of_pericenter": 101.4247,
        "meta_mean_anomaly": 77.7519,
        "meta_ephemeris_type": 0,
        "meta_classification_type": "U",
        "meta_norad_cat_id": 34350,
        "meta_element_set_no": 999,
        "meta_rev_at_epoch": 88452,
        "meta_bstar": 0.00030295247,
        "meta_mean_motion_dot": 1.089e-05,
        "meta_mean_motion_ddot": 0,
        "tle_line1": "1 34350U 97051ES  25357.76992935  .00001089  00000+0  30295-3 0  9998",
        "tle_line2": "2 34350  86.3273 358.0205 0023482 101.4247  77.7519 14.45411309884522"
      },
      "geometry": {
        "type": "Point",
        "coordinates": [
          177.4964779555467,
          4.41439478187007
        ]
      }
    },
    {
      "type": "Feature",
      "properties": {
        "norad_id": 34366,
        "name": "IRIDIUM 33 DEB",
        "group": "iridium-33-debris",
        "lat": 34.15938801098276,
        "lon": -138.19480820360985,
        "alt_km": 697.9896403536095,
        "timestamp": "2025-12-24T07:45:06.583774+00:00",
        "meta_object_name": "IRIDIUM 33 DEB",
        "meta_object_id": "1997-051FJ",
        "meta_epoch": "2025-12-22T10:47:10.372704",
        "meta_mean_motion": 14.54128755,
        "meta_eccentricity": 0.00230356,
        "meta_inclination": 86.3686,
        "meta_ra_of_asc_node": 45.09,
        "meta_arg_of_pericenter": 109.4758,
        "meta_mean_anomaly": 314.4093,
        "meta_ephemeris_type": 0,
        "meta_classification_type": "U",
        "meta_norad_cat_id": 34366,
        "meta_element_set_no": 999,
        "meta_rev_at_epoch": 88323,
        "meta_bstar": 0.000894432,
        "meta_mean_motion_dot": 3.813e-05,
        "meta_mean_motion_ddot": 0,
        "tle_line1": "1 34366U 97051FJ  25356.44942561  .00003813  00000+0  89443-3 0  9995",
        "tle_line2": "2 34366  86.3686  45.0900 0023035 109.4758 314.4093 14.54128755883236"
      },
      "geometry": {
        "type": "Point",
        "coordinates": [
          -138.19480820360985,
          34.15938801098276
        ]
      }
    },
    {
      "type": "Feature",
      "properties": {
        "norad_id": 34375,
        "name": "IRIDIUM 33 DEB",
        "group": "iridium-33-debris",
        "lat": -3.8338267260400865,
        "lon": 177.79242353408603,
        "alt_km": 840.3301859544317,
        "timestamp": "2025-12-24T07:45:06.583785+00:00",
        "meta_object_name": "IRIDIUM 33 DEB",
        "meta_object_id": "1997-051FT",
        "meta_epoch": "2025-12-23T23:53:27.636864",
        "meta_mean_motion": 14.18011996,
        "meta_eccentricity": 0.01036955,
        "meta_inclination": 86.4323,
        "meta_ra_of_asc_node": 178.164,
        "meta_arg_of_pericenter": 91.5399,
        "meta_mean_anomaly": 34.9546,
        "meta_ephemeris_type": 0,
        "meta_classification_type": "U",
        "meta_norad_cat_id": 34375,
        "meta_element_set_no": 999,
        "meta_rev_at_epoch": 86871,
        "meta_bstar": 0.0003861182,
        "meta_mean_motion_dot": 8.53e-06,
        "meta_mean_motion_ddot": 0,
        "tle_line1": "1 34375U 97051FT  25357.99545876  .00000853  00000+0  38612-3 0  9997",
        "tle_line2": "2 34375  86.4323 178.1640 0103695  91.5399  34.9546 14.18011996868718"
      },
      "geometry": {
        "type": "Point",
        "coordinates": [
          177.79242353408603,
          -3.8338267260400865
        ]
      }
    },
    {
      "type": "Feature",
      "properties": {
        "norad_id": 34376,
        "name": "IRIDIUM 33 DEB",
        "group": "iridium-33-debris",
        "lat": 68.05479104786008,
        "lon": 10.578383979037591,
        "alt_km": 667.8865593929913,
        "timestamp": "2025-12-24T07:45:06.583795+00:00",
        "meta_object_name": "IRIDIUM 33 DEB",
        "meta_object_id": "1997-051FU",
        "meta_epoch": "2025-12-23T18:18:19.810656",
        "meta_mean_motion": 14.62709985,
        "meta_eccentricity": 0.00283537,
        "meta_inclination": 86.298,
        "meta_ra_of_asc_node": 1.5832,
        "meta_arg_of_pericenter": 130.5019,
        "meta_mean_anomaly": 229.867,
        "meta_ephemeris_type": 0,
        "meta_classification_type": "U",
        "meta_norad_cat_id": 34376,
        "meta_element_set_no": 999,
        "meta_rev_at_epoch": 88168,
        "meta_bstar": 0.0014354429,
        "meta_mean_motion_dot": 7.374e-05,
        "meta_mean_motion_ddot": 0,
        "tle_line1": "1 34376U 97051FU  25357.76272929  .00007374  00000+0  14354-2 0  9990",
        "tle_line2": "2 34376  86.2980   1.5832 0028353 130.5019 229.8670 14.62709985881683"
      },
      "geometry": {
        "type": "Point",
        "coordinates": [
          10.578383979037591,
          68.05479104786008
        ]
      }
    },
    {
      "type": "Feature",
      "properties": {
        "norad_id": 34486,
        "name": "IRIDIUM 33 DEB",
        "group": "iridium-33-debris",
        "lat": -56.135435043557436,
        "lon": -167.92955914027132,
        "alt_km": 594.5149563982977,
        "timestamp": "2025-12-24T07:45:06.583806+00:00",
        "meta_object_name": "IRIDIUM 33 DEB",
        "meta_object_id": "1997-051GB",
        "meta_epoch": "2025-12-23T12:06:52.771680",
        "meta_mean_motion": 14.96260027,
        "meta_eccentricity": 0.00139643,
        "meta_inclination": 86.3925,
        "meta_ra_of_asc_node": 7.0539,
        "meta_arg_of_pericenter": 81.2813,
        "meta_mean_anomaly": 70.4302,
        "meta_ephemeris_type": 0,
        "meta_classification_type": "U",
        "meta_norad_cat_id": 34486,
        "meta_element_set_no": 999,
        "meta_rev_at_epoch": 89147,
        "meta_bstar": 0.0021946468,
        "meta_mean_motion_dot": 0.00024903,
        "meta_mean_motion_ddot": 0,
        "tle_line1": "1 34486U 97051GB  25357.50477745  .00024903  00000+0  21946-2 0  9999",
        "tle_line2": "2 34486  86.3925   7.0539 0013964  81.2813  70.4302 14.96260027891472"
      },
      "geometry": {
        "type": "Point",
        "coordinates": [
          -167.92955914027132,
          -56.135435043557436
        ]
      }
    },
    {
      "type": "Feature",
      "properties": {
        "norad_id": 34487,
        "name": "IRIDIUM 33 DEB",
        "group": "iridium-33-debris",
        "lat": -32.31264339356274,
        "lon": -170.29188413739647,
        "alt_km": 765.8533725016823,
        "timestamp": "2025-12-24T07:45:06.583816+00:00",
        "meta_object_name": "IRIDIUM 33 DEB",
        "meta_object_id": "1997-051GC",
        "meta_epoch": "2025-12-23T11:33:20.683296",
        "meta_mean_motion": 14.43229237,
        "meta_eccentricity": 0.00332431,
        "meta_inclination": 86.3429,
        "meta_ra_of_asc_node": 7.752,
        "meta_arg_of_pericenter": 94.9572,
        "meta_mean_anomaly": 67.6392,
        "meta_ephemeris_type": 0,
        "meta_classification_type": "U",
        "meta_norad_cat_id": 34487,
        "meta_element_set_no": 999,
        "meta_rev_at_epoch": 88403,
        "meta_bstar": 0.00016812921,
        "meta_mean_motion_dot": 5.89e-06,
        "meta_mean_motion_ddot": 0,
        "tle_line1": "1 34487U 97051GC  25357.48148939  .00000589  00000+0  16813-3 0  9999",
        "tle_line2": "2 34487  86.3429   7.7520 0033243  94.9572  67.6392 14.43229237884035"
      },
      "geometry": {
        "type": "Point",
        "coordinates": [
          -170.29188413739647,
          -32.31264339356274
        ]
      }
    },
    {
      "type": "Feature",
      "properties": {
        "norad_id": 34488,
        "name": "IRIDIUM 33 DEB",
        "group": "iridium-33-debris",
        "lat": -47.51819992478019,
        "lon": 124.08822468082212,
        "alt_km": 482.3766872244905,
        "timestamp": "2025-12-24T07:45:06.583827+00:00",
        "meta_object_name": "IRIDIUM 33 DEB",
        "meta_object_id": "1997-051GD",
        "meta_epoch": "2025-12-23T07:14:56.478912",
        "meta_mean_motion": 15.32002527,
        "meta_eccentricity": 0.00097213,
        "meta_inclination": 86.3275,
        "meta_ra_of_asc_node": 300.5735,
        "meta_arg_of_pericenter": 36.3388,
        "meta_mean_anomaly": 323.852,
        "meta_ephemeris_type": 0,
        "meta_classification_type": "U",
        "meta_norad_cat_id": 34488,
        "meta_element_set_no": 999,
        "meta_rev_at_epoch": 89401,
        "meta_bstar": 0.0045068376,
        "meta_mean_motion_dot": 0.00141753,
        "meta_mean_motion_ddot": 0,
        "tle_line1": "1 34488U 97051GD  25357.30204258  .00141753  00000+0  45068-2 0  9990",
        "tle_line2": "2 34488  86.3275 300.5735 0009721  36.3388 323.8520 15.32002527894015"
      },
      "geometry": {
        "type": "Point",
        "coordinates": [
          124.08822468082212,
          -47.51819992478019
        ]
      }
    }
  ]
}